<?xml version="1.0" encoding="UTF-8"?>
<kml xmlns="http://www.opengis.net/kml/2.2" xmlns:gx="http://www.google.com/kml/ext/2.2" xmlns:kml="http://www.opengis.net/kml/2.2" xmlns:atom="http://www.w3.org/2005/Atom">
<Document>
	<name>Bahrain.kml</name>
	<Style id="inline">
		<LineStyle>
			<color>ff0000ff</color>
			<width>2</width>
		</LineStyle>
		<PolyStyle>
			<fill>0</fill>
		</PolyStyle>
	</Style>
	<StyleMap id="inline0">
		<Pair>
			<key>normal</key>
			<styleUrl>#inline1</styleUrl>
		</Pair>
		<Pair>
			<key>highlight</key>
			<styleUrl>#inline</styleUrl>
		</Pair>
	</StyleMap>
	<Style id="inline1">
		<LineStyle>
			<color>ff0000ff</color>
			<width>2</width>
		</LineStyle>
		<PolyStyle>
			<fill>0</fill>
		</PolyStyle>
	</Style>
	<Placemark>
		<name>Bahrain</name>
		<styleUrl>#inline0</styleUrl>
		<Polygon>
			<tessellate>1</tessellate>
			<outerBoundaryIs>
				<LinearRing>
					<coordinates>
						50.56459454114264,25.80160582912057,0 50.55311306519743,25.82418061034085,0 50.55043196516345,25.84553589888981,0 50.53810259845866,25.86655119474642,0 50.52885947468702,25.88233473540358,0 50.51390271975343,25.89931189083286,0 50.50217803044254,25.9128730906448,0 50.48799093448946,25.92427528604821,0 50.47312770468969,25.93494489561263,0 50.46202190755662,25.94479333284243,0 50.45844915693944,25.95949386278163,0 50.45520100338734,25.97166367524267,0 50.46014321114041,25.99030860822288,0 50.46984942786465,26.00322661617241,0 50.47215475214206,26.02044873616229,0 50.48172247015354,26.03178798683578,0 50.48404546787816,26.04612231511485,0 50.48407958496001,26.05817601456243,0 50.48017846269495,26.07074506864775,0 50.48306129578766,26.07946866965707,0 50.47999474038608,26.09139030805132,0 50.47145682133304,26.10394947950034,0 50.46399841890785,26.1144323893813,0 50.46063844647301,26.12433128493527,0 50.45347988066212,26.13425314585326,0 50.45151024487053,26.14641233586329,0 50.44896829805869,26.15825858139584,0 50.44962328647934,26.17026169720577,0 50.45192576615853,26.18440579624139,0 50.45343340284043,26.19624874617447,0 50.44632996825439,26.20571591234358,0 50.44501002833876,26.21523550857677,0 50.43600718842512,26.21818342448941,0 50.43951699611996,26.2282908590416,0 50.44156535268063,26.2379034485766,0 50.45120328786192,26.24671168661941,0 50.4651908585897,26.25030870034471,0 50.46526616079768,26.25910438653903,0 50.48263577774392,26.26521434574891,0 50.48775928800295,26.25985962659581,0 50.49893433108259,26.26416850363461,0 50.50335934265333,26.25022663159179,0 50.51303076606338,26.24789564748603,0 50.5195105073897,26.23601463610931,0 50.52691454514859,26.24227472540958,0 50.53322826727276,26.25072266564618,0 50.5414949453675,26.24486541557107,0 50.55113695467529,26.25008771139736,0 50.55849689146146,26.24196900460258,0 50.5637053468284,26.24758843780956,0 50.57227672007403,26.2444492457488,0 50.57301431335245,26.25565924723965,0 50.58251989242181,26.2604222012869,0 50.58329919012878,26.27008959231173,0 50.59091179026873,26.27465308306168,0 50.5758948898194,26.2839976732975,0 50.57780593388755,26.29676095417131,0 50.58807871310809,26.29371139891498,0 50.59745698096113,26.28518819259108,0 50.59719796270077,26.29940440754639,0 50.60523827143064,26.30086283837986,0 50.61604306240037,26.29216751864915,0 50.62909197835844,26.29004679031019,0 50.63582469204672,26.29670777102605,0 50.61455311518636,26.30956206578806,0 50.62256125663495,26.32181693706087,0 50.62887494246817,26.32977382238102,0 50.63621255281736,26.33803994983604,0 50.65018701110239,26.33102741950772,0 50.66041926785653,26.32322547160016,0 50.65223462320304,26.31073602533418,0 50.63904137197456,26.28693798195781,0 50.64958768693381,26.28295554515473,0 50.65532240115783,26.29470744998132,0 50.66202076803973,26.30476574664994,0 50.67433093382294,26.29756295000258,0 50.67624319817809,26.28896384480853,0 50.67215946714946,26.27936052785623,0 50.68148587128733,26.2748392179736,0 50.68106301033698,26.26794724587409,0 50.68867387280743,26.26558012502712,0 50.68428233087067,26.25081782040078,0 50.6604520828083,26.25341743240715,0 50.65969970774601,26.2443165321884,0 50.66843975979977,26.24411873456219,0 50.68127698691949,26.2337068116284,0 50.66662352141073,26.23214725993954,0 50.66699295237993,26.22594503877537,0 50.69547704344696,26.22558825234879,0 50.70633109861014,26.20967712476621,0 50.72089273795666,26.18149484071586,0 50.69102559825459,26.19666913196927,0 50.66731050679179,26.18520486143528,0 50.65043659863661,26.21637658649011,0 50.62323137804825,26.20978493938305,0 50.59506489504542,26.19406724833603,0 50.59852895952011,26.17505865359299,0 50.61501965740832,26.18777045911266,0 50.63167251256326,26.1786858560179,0 50.64843376714431,26.17362007774294,0 50.644524056874,26.15929888221378,0 50.6636371135386,26.16726976852705,0 50.64965182244176,26.1432998643146,0 50.64440371786286,26.1210245712758,0 50.63196438885532,26.11187165647302,0 50.62979162820963,26.09334390678432,0 50.62920668054423,26.07602263446248,0 50.61963908750798,26.06699141285106,0 50.62138128175524,26.05166890632296,0 50.63279631095468,26.04043621436895,0 50.62992869919815,26.02506765951794,0 50.62872341673619,26.00908472450977,0 50.61981332285499,25.99663660389775,0 50.61706059822568,25.98007484537678,0 50.61260122147124,25.97129395033549,0 50.61627260583513,25.9495765011552,0 50.6134445031074,25.93499881915353,0 50.60551082693744,25.91200674100592,0 50.60562994580584,25.88533683673984,0 50.60742038416604,25.87036567285242,0 50.60803204823168,25.85529935245274,0 50.5818792160239,25.82120909785994,0 50.56459454114264,25.80160582912057,0 
					</coordinates>
				</LinearRing>
			</outerBoundaryIs>
		</Polygon>
	</Placemark>
</Document>
</kml>
