<?xml version="1.0" encoding="UTF-8"?>
<kml xmlns="http://www.opengis.net/kml/2.2" xmlns:gx="http://www.google.com/kml/ext/2.2" xmlns:kml="http://www.opengis.net/kml/2.2" xmlns:atom="http://www.w3.org/2005/Atom">
<Document>
	<name>Gheshm.kml</name>
	<Style id="inline">
		<LineStyle>
			<color>ff0000ff</color>
			<width>2</width>
		</LineStyle>
		<PolyStyle>
			<fill>0</fill>
		</PolyStyle>
	</Style>
	<StyleMap id="inline0">
		<Pair>
			<key>normal</key>
			<styleUrl>#inline1</styleUrl>
		</Pair>
		<Pair>
			<key>highlight</key>
			<styleUrl>#inline</styleUrl>
		</Pair>
	</StyleMap>
	<Style id="inline1">
		<LineStyle>
			<color>ff0000ff</color>
			<width>2</width>
		</LineStyle>
		<PolyStyle>
			<fill>0</fill>
		</PolyStyle>
	</Style>
	<Placemark>
		<name>Gheshm</name>
		<styleUrl>#inline0</styleUrl>
		<Polygon>
			<tessellate>1</tessellate>
			<outerBoundaryIs>
				<LinearRing>
					<coordinates>
						56.2649604696833,26.92874625827415,0 56.23687178879051,26.92597109150508,0 56.21289992008411,26.92427759605669,0 56.18900539135886,26.91899890809922,0 56.17051531447125,26.90864156284932,0 56.16007871828815,26.89331230370856,0 56.15532455980317,26.87779283247132,0 56.1494539336403,26.86218042271018,0 56.14401820504673,26.84924705857281,0 56.13035990655062,26.83371857186851,0 56.10675785858804,26.81642836210558,0 56.08387351730012,26.79605752951659,0 56.07739855555309,26.78374618919216,0 56.0630681086644,26.7746982007663,0 56.0514456072966,26.76562595164594,0 56.03482625057313,26.75646166748563,0 56.02244916434804,26.74821882983882,0 56.00704074328395,26.7400528672357,0 55.99489542724046,26.73331012522978,0 55.98245681061482,26.72828068510796,0 55.97808409303151,26.71444887140943,0 55.96626754684782,26.70449639521291,0 55.95025088304763,26.69398756704202,0 55.93758815026338,26.68859833743314,0 55.92483700767355,26.68675263456368,0 55.91538077303576,26.69476502157061,0 55.91383489312383,26.70659980818977,0 55.90483095711839,26.71764549443015,0 55.89142218856823,26.72712596703631,0 55.88021300330301,26.73298510587315,0 55.86319282574863,26.73580385054553,0 55.84654128924976,26.73066614469695,0 55.82695745808006,26.72155927170811,0 55.81206605954397,26.71166900867723,0 55.79887825660312,26.70053706277957,0 55.7845263839627,26.69291556193021,0 55.76897636743552,26.68545402535858,0 55.74918504825645,26.68071520840979,0 55.73231858118702,26.68236825434683,0 55.70897042184811,26.68609686270845,0 55.69051017083277,26.687097097963,0 55.67114268205078,26.67549524950117,0 55.65964208453479,26.66456597384623,0 55.6450271661555,26.65511427787745,0 55.62865560028354,26.64588112067023,0 55.61039491475738,26.63933100029357,0 55.59174774001692,26.63757194378245,0 55.57324943364926,26.62909810122262,0 55.55094430414471,26.62440437821955,0 55.53201619633887,26.6166215623973,0 55.51963215390761,26.60395599737167,0 55.50106851958864,26.59583653884014,0 55.47487561766562,26.5934750949767,0 55.45381291257867,26.59290619887383,0 55.43261987409463,26.58433259128335,0 55.41497567000621,26.57689429347055,0 55.39381956957472,26.57075664594548,0 55.36977537167591,26.56659452621221,0 55.34922708692068,26.56932555099965,0 55.33220655723923,26.57164606395677,0 55.32351635509504,26.56085872982189,0 55.31892210468334,26.54998747410059,0 55.30457864998461,26.54908765990121,0 55.29045337027433,26.53827606111894,0 55.27345363333966,26.55327027548147,0 55.26909150854251,26.57488845310523,0 55.27674098119937,26.59243786425774,0 55.27746118277593,26.61325527544043,0 55.2717395094958,26.63030313982597,0 55.25820925783606,26.65195343306647,0 55.27197697296094,26.66316095947145,0 55.28941709459634,26.65228405601766,0 55.31477381061813,26.64578534366257,0 55.33870587325369,26.64505836238451,0 55.36552318532416,26.64810222733897,0 55.39378272068289,26.66227758226053,0 55.41058181822113,26.67376942183508,0 55.43252292033661,26.67097783982737,0 55.45448183988655,26.68063310460735,0 55.4701253161574,26.68777712588887,0 55.48771399983569,26.69751296650616,0 55.50255820100869,26.70218536610779,0 55.52515509076773,26.70129752322254,0 55.53279423203811,26.71181053097721,0 55.55338892520817,26.71091992095701,0 55.57392115273725,26.72341719507284,0 55.5945939978546,26.72993513874733,0 55.61172764343885,26.73826930472965,0 55.62657231746309,26.75900646154954,0 55.65304430886384,26.77243469735149,0 55.68197295544662,26.78101910758448,0 55.69839172568737,26.80656098847824,0 55.71920981099278,26.78288842628046,0 55.75304182621284,26.77938044031623,0 55.7772597615642,26.79051223675441,0 55.77392756672758,26.82486947191778,0 55.78386105597708,26.84365346581932,0 55.76890342367285,26.86264642034175,0 55.77486128020388,26.8820456505339,0 55.75024916809934,26.90018240298327,0 55.73567168501737,26.92150698575538,0 55.72699930970459,26.94091827433083,0 55.75367335164129,26.95319068760697,0 55.78035548980517,26.94891733042097,0 55.80167500356644,26.93361369115765,0 55.82353657273698,26.92082979813183,0 55.85061801020173,26.90476508787392,0 55.87856830840867,26.89779196904063,0 55.91743922502859,26.90711362868954,0 55.94259664304341,26.92322209989436,0 55.96415881055195,26.93709247802838,0 55.98362446661866,26.94826507111479,0 55.99920139532689,26.95283347368501,0 56.02393660046172,26.95305187515206,0 56.05235060627611,26.96593160391061,0 56.08203215027714,26.97379352194899,0 56.09550369404823,26.9839035206903,0 56.12831382396887,26.98291136320355,0 56.1532834804704,27.00097716231367,0 56.18348305400248,26.99209423122176,0 56.21353206766067,26.99811613766764,0 56.23098754560876,26.98189423748016,0 56.25805666237203,26.97193349660536,0 56.28182951261352,26.96401573954574,0 56.28428484728746,26.94010445540085,0 56.2649604696833,26.92874625827415,0 
					</coordinates>
				</LinearRing>
			</outerBoundaryIs>
		</Polygon>
	</Placemark>
</Document>
</kml>
