<?xml version="1.0" encoding="UTF-8"?>
<kml xmlns="http://www.opengis.net/kml/2.2" xmlns:gx="http://www.google.com/kml/ext/2.2" xmlns:kml="http://www.opengis.net/kml/2.2" xmlns:atom="http://www.w3.org/2005/Atom">
<Document>
	<name>khark1.kml</name>
	<StyleMap id="m_ylw-pushpin">
		<Pair>
			<key>normal</key>
			<styleUrl>#s_ylw-pushpin</styleUrl>
		</Pair>
		<Pair>
			<key>highlight</key>
			<styleUrl>#s_ylw-pushpin_hl</styleUrl>
		</Pair>
	</StyleMap>
	<Style id="s_ylw-pushpin">
		<IconStyle>
			<scale>1.1</scale>
			<Icon>
				<href>http://maps.google.com/mapfiles/kml/pushpin/ylw-pushpin.png</href>
			</Icon>
			<hotSpot x="20" y="2" xunits="pixels" yunits="pixels"/>
		</IconStyle>
	</Style>
	<Style id="s_ylw-pushpin_hl">
		<IconStyle>
			<scale>1.3</scale>
			<Icon>
				<href>http://maps.google.com/mapfiles/kml/pushpin/ylw-pushpin.png</href>
			</Icon>
			<hotSpot x="20" y="2" xunits="pixels" yunits="pixels"/>
		</IconStyle>
	</Style>
	<Placemark>
		<name>khark1</name>
		<styleUrl>#m_ylw-pushpin</styleUrl>
		<Polygon>
			<tessellate>1</tessellate>
			<outerBoundaryIs>
				<LinearRing>
					<coordinates>
						50.36026474129079,29.34296626870214,0 50.3557730107227,29.34502897347141,0 50.35009832341395,29.34441170639959,0 50.34276832186126,29.34173256417914,0 50.33520219155118,29.33719801858388,0 50.33283927337587,29.33287022191266,0 50.33260256073407,29.32771537810824,0 50.33023891815938,29.32256271665547,0 50.32834952867641,29.31679375754331,0 50.32527690194797,29.31081416343325,0 50.32574897670173,29.30586900952082,0 50.32409540996193,29.30030430111632,0 50.3257501496465,29.29329748719718,0 50.3266961968094,29.29000009762692,0 50.32882302443544,29.28608481503824,0 50.3326093725978,29.28629191542541,0 50.33472922316782,29.28938172347617,0 50.33827429323539,29.29185444484606,0 50.34441816053693,29.29412046816843,0 50.346545227773,29.29721150666448,0 50.34725486663673,29.30133216771537,0 50.34961814230941,29.3033931370947,0 50.35198211568858,29.30689690509072,0 50.35269247718992,29.31225367767519,0 50.35245721151792,29.3184348494129,0 50.35269422204066,29.32152606217763,0 50.35434952571622,29.32523608698692,0 50.35695116548903,29.33059646127115,0 50.35978856765533,29.33265816125562,0 50.3593179803854,29.33966786854701,0 50.36026474129079,29.34296626870214,0 
					</coordinates>
				</LinearRing>
			</outerBoundaryIs>
		</Polygon>
	</Placemark>
</Document>
</kml>
