<?xml version="1.0" encoding="UTF-8"?>
<kml xmlns="http://www.opengis.net/kml/2.2" xmlns:gx="http://www.google.com/kml/ext/2.2" xmlns:kml="http://www.opengis.net/kml/2.2" xmlns:atom="http://www.w3.org/2005/Atom">
<Document>
	<name>PersianGulf.kml</name>
	<Style id="inline">
		<LineStyle>
			<color>ff0000ff</color>
			<width>2</width>
		</LineStyle>
		<PolyStyle>
			<fill>0</fill>
		</PolyStyle>
	</Style>
	<Style id="inline0">
		<LineStyle>
			<color>ff0000ff</color>
			<width>2</width>
		</LineStyle>
		<PolyStyle>
			<fill>0</fill>
		</PolyStyle>
	</Style>
	<StyleMap id="inline1">
		<Pair>
			<key>normal</key>
			<styleUrl>#inline</styleUrl>
		</Pair>
		<Pair>
			<key>highlight</key>
			<styleUrl>#inline0</styleUrl>
		</Pair>
	</StyleMap>
	<Placemark>
		<name>PersianGulf</name>
		<LookAt>
			<longitude>52.1732216507627</longitude>
			<latitude>27.15982454693901</latitude>
			<altitude>0</altitude>
			<heading>-3.390116731745886e-06</heading>
			<tilt>45.0004067114933</tilt>
			<range>1086473.36531005</range>
			<gx:altitudeMode>relativeToSeaFloor</gx:altitudeMode>
		</LookAt>
		<styleUrl>#inline1</styleUrl>
		<Polygon>
			<tessellate>1</tessellate>
			<outerBoundaryIs>
				<LinearRing>
					<coordinates>
						56.60722796053975,27.15061820530527,0 56.58242021896174,27.15052197329046,0 56.56265565810869,27.15352546762842,0 56.53965816817951,27.15697746258186,0 56.51616682061707,27.16506239057416,0 56.49915378239135,27.16705574523245,0 56.48402491776879,27.16610318332673,0 56.46571618841166,27.16221053451093,0 56.44708317217955,27.16566897816422,0 56.4285862353429,27.16680253780764,0 56.40835537991773,27.17122132486016,0 56.38788627309302,27.1749051228123,0 56.36792375831519,27.18144568706251,0 56.35382736090932,27.18810097130804,0 56.3388411002723,27.18597488196632,0 56.31946106536019,27.18301662163118,0 56.30159917523233,27.18091198614682,0 56.2821464153932,27.17754969387873,0 56.25887607691465,27.17020061082273,0 56.24380556318795,27.16323491654343,0 56.22703143863269,27.15312852172305,0 56.22141097213971,27.14155466020385,0 56.20400934950639,27.1347578013225,0 56.18437841713895,27.13530852917934,0 56.19100075211418,27.15377988291073,0 56.15174760365941,27.15404457137286,0 56.12555030819331,27.14987320196433,0 56.10666063073791,27.13476830997995,0 56.09317068742345,27.12085906339925,0 56.08442948788201,27.10605143397776,0 56.053172825925,27.09297061275225,0 56.03041533297307,27.08203158809539,0 56.01047845012673,27.08278172217327,0 55.98568264065183,27.07068058439395,0 55.98491627727399,27.05106963778164,0 55.97026912066767,27.03015323101599,0 55.95086980907126,27.02269928354457,0 55.93242781904372,27.02409516748644,0 55.90455090946202,27.017794428078,0 55.8811189639673,27.01605362014822,0 55.86077328023521,27.00419045523751,0 55.83594107733034,27.00185134211408,0 55.80871462599944,26.99821369528398,0 55.78047066333029,26.99570292743114,0 55.75930080353472,26.98882722268296,0 55.74530664391633,26.97310799096208,0 55.72162553039773,26.98264989584585,0 55.69286367139512,26.98700008552124,0 55.66241870318371,26.98438617351693,0 55.63765808130745,26.97906399241023,0 55.62751039169087,26.96452296859151,0 55.61121080612669,26.95225565236185,0 55.59679334571742,26.94410000646624,0 55.58140716026772,26.93153714892329,0 55.56967040789479,26.91715046320206,0 55.56472633045836,26.89897534486103,0 55.57599172256832,26.87385976610314,0 55.57281373533477,26.84985950492964,0 55.55388485038554,26.83309123148311,0 55.56366895652055,26.81441444208978,0 55.53876872183006,26.79743950113639,0 55.52096540728131,26.78393288910391,0 55.50154882118441,26.77016618612439,0 55.4800040410325,26.76014107075957,0 55.46260765714428,26.75107352858312,0 55.43447670376199,26.75085868063929,0 55.41064319669552,26.75518863602911,0 55.38258703100895,26.75432307161364,0 55.35897565423515,26.76757793786363,0 55.33587805268786,26.78598921409438,0 55.30882921814633,26.78407246758709,0 55.27727875602157,26.7840121928133,0 55.25305533821651,26.78291941147575,0 55.23636278797232,26.77674833834653,0 55.22724745480184,26.75785084821118,0 55.21659895743213,26.73400447890865,0 55.20002162138714,26.72454008256623,0 55.1730638905171,26.71971453489558,0 55.15145129986901,26.71609543962986,0 55.13698831798676,26.70097631332506,0 55.10798232337699,26.70057680706353,0 55.08773493246542,26.68303535106669,0 55.07164841860116,26.66088513979629,0 55.05904448223762,26.64296652988185,0 55.02807964232726,26.64130753431766,0 55.01114524806825,26.62962948966941,0 54.98563713914667,26.62260446244457,0 54.96389988814382,26.61273367207325,0 54.94998394804028,26.59709001979193,0 54.92971686099017,26.58345098683512,0 54.91323171876029,26.5738364084099,0 54.8920394753549,26.55829323202624,0 54.87668672147942,26.54357751225254,0 54.85965695549005,26.5344546292221,0 54.84641783186992,26.5181071614102,0 54.82332571409955,26.52222514826306,0 54.80605984054201,26.51517950024542,0 54.79462929979413,26.49658549583729,0 54.76051495658631,26.50747145742223,0 54.72441476821263,26.5136131738004,0 54.69489850920743,26.51362314703914,0 54.66690325811578,26.51148740136711,0 54.63917615572015,26.50288011091151,0 54.61674808776392,26.50158773626803,0 54.60048203526906,26.52680534332369,0 54.5920971283857,26.5492843461423,0 54.57873149136782,26.57185044004607,0 54.5644884756987,26.58712829231032,0 54.53965648156132,26.59541164670068,0 54.51685332844186,26.59987145183713,0 54.49095499311095,26.59612069152696,0 54.46735535962931,26.58746911375304,0 54.44030346346433,26.58479371563768,0 54.41184193491639,26.59251394116175,0 54.38965156881012,26.60597478213296,0 54.37561066046958,26.62420049176869,0 54.36292806765419,26.65017211002962,0 54.34989183451875,26.67002102323603,0 54.33627351543533,26.68829000276951,0 54.31946158155006,26.70573421156593,0 54.29867859617234,26.71915613264642,0 54.27865213052365,26.72694220401978,0 54.25969056321668,26.72583580180937,0 54.24630671932166,26.71773455666154,0 54.22976876071134,26.71512777526569,0 54.21159928873557,26.70926868751723,0 54.18775620190887,26.70784048979761,0 54.16539029127427,26.70957247106502,0 54.13870407239564,26.71727076481528,0 54.1062314458153,26.72082484270534,0 54.08626802436147,26.72612981163461,0 54.06353822364769,26.73533997149448,0 54.04174278198004,26.74617976236394,0 54.02437418395552,26.75561500029659,0 54.00718905871048,26.755021701556,0 53.98808434880113,26.75428617244012,0 53.96818523415064,26.74429783719089,0 53.95190994704916,26.73260139199274,0 53.93489602785289,26.72221732466441,0 53.90980840815303,26.72078336922419,0 53.88737476210648,26.72164850309407,0 53.86508159127336,26.71510165872124,0 53.84622678970513,26.70950047501825,0 53.82155425580067,26.7096554317736,0 53.79803518133697,26.71563671554095,0 53.77646083959724,26.72021936178648,0 53.75775019467324,26.72182624678386,0 53.73679704924526,26.71458803796124,0 53.72798049525195,26.70077584174614,0 53.70933022069767,26.71848072920177,0 53.69749957439212,26.734666317182,0 53.67561330735764,26.74386591983823,0 53.65223614461685,26.75420617845782,0 53.62692152528298,26.76255213933092,0 53.60597818062841,26.7725475969415,0 53.58756264714275,26.78479978146098,0 53.56903474161171,26.798922510413,0 53.55042316309152,26.81210122498406,0 53.5320744809905,26.82329621143636,0 53.51603567764937,26.8323356750163,0 53.49643549983686,26.84607034737911,0 53.48433662547095,26.86582556483582,0 53.48606377105457,26.88994067946153,0 53.4858207177594,26.91746601503764,0 53.48386584109328,26.94307905133549,0 53.47282017948284,26.96920738208333,0 53.45709378385975,26.98085246406325,0 53.44197396934673,26.97910261985301,0 53.43163522716896,26.98886959923347,0 53.40914664045849,26.99424460510427,0 53.391633421956,26.99493239455034,0 53.37100097313589,26.99382821203123,0 53.35631365118903,27.00311011637638,0 53.33375625340209,27.01096522989829,0 53.308864671073,27.01978007506971,0 53.2918026485012,27.02499770164671,0 53.27607732738384,27.03553407977407,0 53.25635720474323,27.04168185763288,0 53.23794789758525,27.04750684037439,0 53.2153971768107,27.05474576278582,0 53.19815662032874,27.06083653459627,0 53.17763267872356,27.06866770162317,0 53.15975041398065,27.07526788806393,0 53.13909769439336,27.08294255944636,0 53.12234233165036,27.09072850672462,0 53.10844075997542,27.09482386043549,0 53.08481577293593,27.09574411907191,0 53.06383349341283,27.10143264884368,0 53.03879910294194,27.11181891287274,0 53.02158385416812,27.11932987289192,0 52.98931503533742,27.13149666225694,0 52.9720932563422,27.13702544093854,0 52.95911641444646,27.13928105141802,0 52.94144038538045,27.15112315944307,0 52.92407752727713,27.16273610571714,0 52.9051838160669,27.17157032173132,0 52.88497676479474,27.17961385260225,0 52.86469015860521,27.18760446362112,0 52.84068769681492,27.1986483721484,0 52.82468023093797,27.20969231068961,0 52.81052911909758,27.22269579575849,0 52.79798664798135,27.23604209343221,0 52.78838632926963,27.25097455273688,0 52.77738106077626,27.24752566044347,0 52.76195156156581,27.26195858610485,0 52.74889669034719,27.26940916955366,0 52.72684066000774,27.27919566055617,0 52.70479966129056,27.28888573758952,0 52.69090304319352,27.30134451284567,0 52.67521252688621,27.31245987564456,0 52.66046388349158,27.32101583526352,0 52.64827066107735,27.33222637708471,0 52.63975028287603,27.34243678090263,0 52.62992917117788,27.35200286480933,0 52.61736848541084,27.34983356878691,0 52.60621671363673,27.36144078378518,0 52.59460760208014,27.37065102997425,0 52.58143792695429,27.37875668729934,0 52.57906536184868,27.39275829926493,0 52.60615822431654,27.40101015399359,0 52.62822531490733,27.40291725796379,0 52.64413434739443,27.4023716103921,0 52.65876415254717,27.39518589265971,0 52.67152221603511,27.40928801448846,0 52.67660289289645,27.4263874481533,0 52.67609363786853,27.4399993125899,0 52.67018450610652,27.45368865101375,0 52.64993632034741,27.45961649681702,0 52.6373325358684,27.45272586025703,0 52.61966727676437,27.46278463211868,0 52.60486065485284,27.47236827060312,0 52.5922615431663,27.48521395022502,0 52.57710085127857,27.49953552204009,0 52.57183693866721,27.51449668389517,0 52.55827579465473,27.52731599652101,0 52.54674160359725,27.54168215843832,0 52.53891429206436,27.55676375307967,0 52.52706474555671,27.56593628661873,0 52.51292344782282,27.58089205549642,0 52.50402217002436,27.59108310281121,0 52.49219567862107,27.60820628401753,0 52.47893145441935,27.62017614628227,0 52.45716142021607,27.62371880440538,0 52.44241374018802,27.63877805706545,0 52.43058615124441,27.64864477160956,0 52.40774317285736,27.64952865981149,0 52.38654199625984,27.65161820829377,0 52.36896839047795,27.65231756673036,0 52.35565534287229,27.65061515858453,0 52.34829570263722,27.66387694076387,0 52.33261572998751,27.66693999009177,0 52.3079143252972,27.66765444232846,0 52.29320599426112,27.67619740479492,0 52.26880576205875,27.67625970936692,0 52.25216859221845,27.6824893475895,0 52.23206104899212,27.68829424677589,0 52.20958619446827,27.6941473059741,0 52.19700605244681,27.70427038407976,0 52.18467834749126,27.71483298881037,0 52.17037184454037,27.72613800136248,0 52.15373463584346,27.7403765225933,0 52.13605685772743,27.7556526339434,0 52.12822567583511,27.77096588192456,0 52.11109576271368,27.78251764333343,0 52.09085264580462,27.7992874156489,0 52.0714653098604,27.81296581770166,0 52.0604836835968,27.8273396870838,0 52.04584003355768,27.83822347212208,0 52.02501927378279,27.84049395221803,0 52.00619872549292,27.83950540209832,0 51.98783316353042,27.83834892992816,0 51.96839420429529,27.83857639488207,0 51.9497509938873,27.83700845797013,0 51.93373728974863,27.83227154141959,0 51.92180559495048,27.83214704078631,0 51.89840718919165,27.8339097776533,0 51.87798202231881,27.8381769750786,0 51.85728684251256,27.84239111947969,0 51.83333501405506,27.84309322076944,0 51.81479818024607,27.84313043189022,0 51.80099610573686,27.83950812895274,0 51.78618341956007,27.83475433328845,0 51.7691048159781,27.82960991855649,0 51.74850531764829,27.83191285305951,0 51.73087671024493,27.82926241508613,0 51.71426061772416,27.8245039945689,0 51.69466616960033,27.82152747398209,0 51.67624652680078,27.8320466884774,0 51.66470527778942,27.84186362072285,0 51.64154176404792,27.84376865068131,0 51.62265782472339,27.8466454006735,0 51.61036124070001,27.8477214019087,0 51.58096620893048,27.84154442705589,0 51.59141139218517,27.85569208046221,0 51.58034488667111,27.86788388843477,0 51.56394531289165,27.87926268645248,0 51.54833463398929,27.88711177268348,0 51.52665477115706,27.88810382079957,0 51.50307174750425,27.87558188407455,0 51.47647406284994,27.86286755505516,0 51.45358833964737,27.84362049138023,0 51.43516831789265,27.86483293096611,0 51.43064625353906,27.88102469061556,0 51.42089316257517,27.89732980735755,0 51.40905858599378,27.91236833312367,0 51.39590971897308,27.93085028953035,0 51.39200831864061,27.96037082254793,0 51.38622874653388,27.97873818231736,0 51.37664838516523,28.00028856602583,0 51.34399894584589,27.98246609511554,0 51.32377088945363,28.00747734805012,0 51.31468970718063,28.02501934959548,0 51.29976230049099,28.0509521486315,0 51.28956544042582,28.08521461813953,0 51.27865823874899,28.11144412167064,0 51.25901494734028,28.12344542262411,0 51.26275396006092,28.14609164852992,0 51.27400641701571,28.16752672231374,0 51.28308195389744,28.18597343476081,0 51.28963226987343,28.21398809884136,0 51.28705108052673,28.230680450707,0 51.26627065639754,28.251059669351,0 51.25366970362861,28.26592359423305,0 51.23844942085339,28.28185937034756,0 51.22136223821281,28.30290892015635,0 51.20732416267248,28.31780151894151,0 51.19435127910811,28.33633948653468,0 51.17627856858567,28.35330672598624,0 51.16938676914544,28.368697259813,0 51.15824169726461,28.3848521361652,0 51.14857975132328,28.39883317246361,0 51.1389257254534,28.41418385264763,0 51.12105155643961,28.4457807558004,0 51.11207114534365,28.47396119807523,0 51.0968489877533,28.49544629032239,0 51.09166066575916,28.51360820294608,0 51.09118852196703,28.53443024992421,0 51.08011576680735,28.56016358700049,0 51.07839282445807,28.58516570718952,0 51.0797801602763,28.6163132566209,0 51.07634662021869,28.63918880114228,0 51.07451379353154,28.66691331875651,0 51.06892925563838,28.70177271852402,0 51.05583442657665,28.7260780856335,0 51.04876468960163,28.74508641121482,0 51.04053297164048,28.76227486308821,0 51.0258579910375,28.78119173838041,0 51.02132129582574,28.80168861170184,0 51.00484003340798,28.81249473125847,0 50.97425429631637,28.81594410888831,0 50.94158564766899,28.82188238302146,0 50.91660239558614,28.82285374732685,0 50.89163720798381,28.81916688297574,0 50.87612986558979,28.83422164518262,0 50.85987535313565,28.85209329457298,0 50.84791856165806,28.86742176850767,0 50.83482405000564,28.88496895570033,0 50.82179861563972,28.90249498197332,0 50.81051905701039,28.91856968433001,0 50.80923693816138,28.93622326483687,0 50.81075906510097,28.96118281785991,0 50.8248128229959,28.97396637259018,0 50.82851237504283,28.9954755465462,0 50.86554603897501,29.01587725735676,0 50.86519693293797,29.06437596628319,0 50.8560134284322,29.09133981077483,0 50.83474735312266,29.10544515078308,0 50.79219041814957,29.11380755674948,0 50.77086117461431,29.07867262514878,0 50.73974243621296,29.06090640258738,0 50.70125726895816,29.09282386093353,0 50.65851463367709,29.11146965924867,0 50.64359950990236,29.15429626906182,0 50.64605928679178,29.192502954351,0 50.65779323310275,29.23374437133512,0 50.662810061686,29.2805130888671,0 50.66382940832811,29.32548882908969,0 50.66392092992393,29.36402678479821,0 50.66126369426878,29.40806783390774,0 50.6432225917431,29.44030038276843,0 50.61777893295686,29.45745408597751,0 50.58527064260518,29.48412457250659,0 50.55532550134642,29.51659098034602,0 50.52538719922217,29.53817853893325,0 50.50461995723644,29.56370015928222,0 50.49823297603221,29.59051796246682,0 50.47775985849943,29.61466738462682,0 50.4551113612119,29.63527722399116,0 50.43080650583172,29.64786906113591,0 50.40035194318106,29.66536436133512,0 50.37725730802628,29.68735364810416,0 50.34409590751355,29.72191255630099,0 50.31871372802775,29.74784666337651,0 50.2962627108436,29.77466111128731,0 50.27905854476964,29.80397333138736,0 50.26150013079409,29.82800648421803,0 50.23351258537236,29.85968939067915,0 50.20724483487292,29.8826520777927,0 50.18108713452079,29.90703194488736,0 50.13681845675842,29.92555372803288,0 50.14225464712104,29.97116986609128,0 50.14481850675014,30.01081014923914,0 50.14625413629105,30.04567660524036,0 50.13513550781511,30.08705546037746,0 50.11910422228359,30.12242695266842,0 50.10329196339712,30.15129262296005,0 50.08301802068107,30.18350983707138,0 50.0523129983541,30.19998795509704,0 50.00574869879328,30.21133799286965,0 49.95413738781798,30.20643117249659,0 49.90880170572643,30.19218546648129,0 49.8768762864138,30.17607167867907,0 49.84207929323684,30.1563682625554,0 49.8082958322919,30.13589740189306,0 49.77373223297307,30.11391064763932,0 49.72675716216133,30.08854407392284,0 49.64988679672433,30.04308722361299,0 49.5631721662113,29.9989887091336,0 49.52340360833811,30.01478344245411,0 49.50126034559917,30.06916654079229,0 49.5162798617374,30.12304335706391,0 49.49766676660403,30.15285908586159,0 49.45263006383182,30.16174855405269,0 49.41475551456497,30.15686529063889,0 49.36430836657639,30.1559068746766,0 49.31663041862786,30.14857829046489,0 49.27417939838405,30.13925638173969,0 49.24413751515451,30.13633112678978,0 49.19352917232651,30.21214787495947,0 49.13477724263925,30.24364176040846,0 49.07099915154787,30.27226880922801,0 49.01165015460673,30.29934176841011,0 48.95309992912082,30.35795040386549,0 48.88338728072787,30.32700543535891,0 48.90259896299792,30.25528164323891,0 48.94600240867052,30.1870001162063,0 48.93648468385086,30.11037886501849,0 48.9231408322029,30.03353656809097,0 48.88265037339303,30.00343278836908,0 48.76136947503439,30.01784393526427,0 48.68722689604903,29.91864173228909,0 48.54382176099578,29.88784213295711,0 48.46967813735512,29.90953770793293,0 48.38361876637747,29.93241857890176,0 48.30004631040451,29.87561753424574,0 48.37900824062729,29.75349226165339,0 48.31877553491552,29.65556492707333,0 48.22677724016708,29.58132219548173,0 48.07495792033559,29.57426415139112,0 47.93326921825618,29.55221419464396,0 47.81009515658074,29.47881927887654,0 47.73922037756448,29.40812155152448,0 47.81497169423083,29.3731325297092,0 47.91618672040877,29.36255816951123,0 47.99783911768726,29.39194502283764,0 48.09880575622407,29.3514169477104,0 48.09036451839203,29.26041328755281,0 48.1230647198706,29.17044248717071,0 48.14312839811812,29.08239124804118,0 48.16568036747607,29.00355208555296,0 48.21890150014757,28.91280340844306,0 48.28877624869572,28.87984024387992,0 48.27765123877767,28.80674229623064,0 48.32911749548373,28.75244389746695,0 48.39851411262907,28.74485178569236,0 48.39010447052124,28.63903484278593,0 48.43013254501803,28.5394654352847,0 48.49839068044407,28.49409494589303,0 48.54670564570859,28.40731345072576,0 48.50988643786286,28.34459021708267,0 48.5826752684219,28.25139964275405,0 48.64090136438804,28.19397791800617,0 48.6177630584282,28.09928422251628,0 48.67100347786684,28.02881843938668,0 48.79806695757519,27.99905802990498,0 48.76396197699346,27.94092093328335,0 48.83982971572973,27.86077673243437,0 48.88883218502274,27.76946246790759,0 48.97034201569809,27.62309735223414,0 49.0703612950762,27.56007363906798,0 49.17387798480616,27.54269108161529,0 49.27219792086557,27.52823092079507,0 49.31367846881572,27.45057256322771,0 49.52395904436394,27.35493309327644,0 49.69418266994813,27.30745456652857,0 49.58792606426968,27.17548895730686,0 49.61285139097809,27.07549045896358,0 49.67258695154518,26.99938911890273,0 49.73847146123526,26.93319339895137,0 49.84466544700062,26.87566734694512,0 49.97362505148795,26.83117027214847,0 50.03802133881862,26.76412909739309,0 50.16609473515913,26.63475661891079,0 50.07892379280337,26.58892383833445,0 50.12117496846635,26.49852150394238,0 50.21616931175623,26.50057835077089,0 50.19746725872011,26.44929696535577,0 50.24368544541388,26.36992989886149,0 50.21930306945817,26.277576585481,0 50.20854617415329,26.17504165388076,0 50.15968252198559,26.12008737599455,0 50.15106830365423,26.03320733654589,0 50.0866259804718,26.12507223212175,0 50.03664707020008,26.2020237901089,0 49.98976156095535,26.10746022869321,0 50.00306438465405,25.98833294801155,0 50.10707376603792,25.98286374909372,0 50.12824974462392,25.93114707033459,0 50.12030557043383,25.86498369444314,0 50.20040137718382,25.74891567768173,0 50.28816022977638,25.63139900648786,0 50.36396463897862,25.53651532097354,0 50.43319811664811,25.45086039550446,0 50.49955455029406,25.37851972885267,0 50.53118102171456,25.26460590979053,0 50.55814218723838,25.14375878026254,0 50.61732153916574,25.02369990919028,0 50.67440234351828,24.94181303741215,0 50.74094132899954,24.81829484263497,0 50.76936463378273,24.7224821951345,0 50.86155040837199,24.76934075950109,0 50.85611933268571,24.87777254093579,0 50.80754975013649,24.97204327496614,0 50.8141196176802,25.04338626434323,0 50.77193912773068,25.10821964726654,0 50.76505608639678,25.22038250370368,0 50.7649709141938,25.2949333750985,0 50.75341381181613,25.39830914603749,0 50.76825360483445,25.48947254817701,0 50.74361828703452,25.59899953783967,0 50.75518528027224,25.71857501008826,0 50.91449366543365,25.78261602199865,0 50.99358089105421,25.92608260350367,0 51.0375462206727,26.04136612308853,0 51.18042898403679,26.14280486989706,0 51.29806643354198,26.13904485869238,0 51.36016784200146,26.09526366182357,0 51.4076194438543,25.96332780190143,0 51.58140262477826,25.92295776962519,0 51.59782220033613,25.79233246922684,0 51.58418352220624,25.68450550068104,0 51.52766386979637,25.61015408008733,0 51.47344538825238,25.51693074235898,0 51.5317957004813,25.43298976790035,0 51.5842783986074,25.34329618250325,0 51.63114829937168,25.25059044805114,0 51.62169505168138,25.12487095034735,0 51.65227415472398,25.03449649548357,0 51.57572693961299,24.92032953158334,0 51.51293134204218,24.85435863536503,0 51.48288294827447,24.77670058858224,0 51.45591033030204,24.71539853526685,0 51.42275401577746,24.64707862378713,0 51.49997281975942,24.57617737328602,0 51.43954464084216,24.53381790899333,0 51.39132703850754,24.48166872756995,0 51.3318438938871,24.4391250404749,0 51.31270608786038,24.39143414738047,0 51.29216648364634,24.34666957758681,0 51.29450717378983,24.2894894889842,0 51.35788940331436,24.2910853404417,0 51.4031173206495,24.32817385794172,0 51.46486104637828,24.31691505311598,0 51.50364990094799,24.29385017056329,0 51.53312407715872,24.25516015306146,0 51.59451626034431,24.25538591460689,0 51.59016641822809,24.31948415230841,0 51.58412159347482,24.37742759094968,0 51.63493985155104,24.33014291176507,0 51.67589398622341,24.29032236186137,0 51.69413654955279,24.21926112036873,0 51.72705541516668,24.26600212419946,0 51.74670470879985,24.29635500407684,0 51.78399829346719,24.26865104841507,0 51.77738292617918,24.19483973215906,0 51.78074721398246,24.11620911160551,0 51.78559741667765,24.04725484801224,0 51.82003307871366,23.99697787282724,0 51.90041041704695,23.98119496193191,0 51.94991222222917,23.99885906380534,0 52.01988340213313,23.99241386858791,0 52.04295763742191,23.97040712842821,0 52.10271453248626,23.96688488244669,0 52.17193216273613,23.96088526702609,0 52.24892426159003,23.97413778508214,0 52.32541387515388,24.00143994270209,0 52.37871917402558,24.041390587615,0 52.4333403868272,24.06055052976147,0 52.48902459680355,24.10320947483471,0 52.55097713618648,24.12957200700475,0 52.5640784489181,24.17403977356796,0 52.60222710773319,24.19862361055676,0 52.64165823104675,24.17590165728978,0 52.6647869077625,24.15055166181794,0 52.72793133978352,24.14546655219579,0 52.77144675435312,24.12969578215245,0 52.82374522933471,24.14541454800463,0 52.8588143481164,24.13164340580482,0 52.91641522771612,24.14449594516966,0 52.98445690515044,24.15699489227453,0 53.04365264304278,24.12209698108933,0 53.11508436927245,24.13756429104086,0 53.13993489268625,24.17504923654539,0 53.19223450087995,24.15128698697078,0 53.21901568474329,24.11863834515509,0 53.27428963015191,24.08823266312099,0 53.31882699887529,24.11513802835919,0 53.37112589030382,24.10839403357409,0 53.44040618205365,24.12283214415871,0 53.52899581462939,24.09496790016082,0 53.57662067875402,24.05586021451166,0 53.70312603093056,24.06658857068185,0 53.77699533566385,24.05869956807136,0 53.88470610530551,24.06873046855821,0 53.95967902075848,24.08186572669531,0 54.03965820331939,24.10946306704757,0 54.10243978404548,24.14288116084035,0 54.15319696396907,24.17491617702808,0 54.20030624267975,24.20361432103131,0 54.13115794596006,24.22973794875176,0 54.08628453901936,24.2887308339534,0 54.15116659589756,24.33165637559698,0 54.1972142029935,24.37669588291278,0 54.25506747346759,24.42457072444119,0 54.30317681145599,24.46617850420878,0 54.35031468423675,24.51540153340059,0 54.41814635123422,24.54223450869128,0 54.46365650324159,24.58436185636238,0 54.5289086624113,24.63100888667178,0 54.58772359483896,24.66590423907193,0 54.64198033574427,24.7284480693065,0 54.69333144649352,24.78176497838611,0 54.71349617709987,24.82865980426645,0 54.7799600794432,24.84520004771813,0 54.8393218239658,24.87940492512511,0 54.88865683637716,24.90780536574011,0 54.9584369390131,24.95913330178234,0 55.04131821250398,24.99476465344145,0 55.096683810042,25.04192899257956,0 55.15754678598602,25.11129554995085,0 55.22615149793607,25.1868545405026,0 55.27332266221045,25.25355511666594,0 55.33384041663561,25.29826627736804,0 55.374968206862,25.35751186835361,0 55.42010586785262,25.39340451026886,0 55.45903163250915,25.43257359317166,0 55.49316136846657,25.48112264617252,0 55.52917741594567,25.53540385175916,0 55.55651943963424,25.58587353266759,0 55.62157371906196,25.6183098578944,0 55.6803240714434,25.63450535008047,0 55.7367040121809,25.6479009503137,0 55.79471269076208,25.71864433849714,0 55.86222247233751,25.72425935518167,0 55.92016099654305,25.77318885588956,0 55.96261822922767,25.81991166010897,0 56.0033485677046,25.86871122719335,0 56.02880210118659,25.91038983429933,0 56.05459567589691,25.97857530008103,0 56.08029706652079,26.02580399901586,0 56.09857298663383,26.08035907897128,0 56.12764846082767,26.12039718531572,0 56.16189888465588,26.1526681086995,0 56.17810198051156,26.20389000015289,0 56.21529452117002,26.2559484180926,0 56.22287523528063,26.2197158163266,0 56.26256268040221,26.21494451845266,0 56.30218536253922,26.22709245652807,0 56.31721053396766,26.28201545460665,0 56.3300254336098,26.31291023081175,0 56.35059426005912,26.3741819784868,0 56.41334859199434,26.37322807663111,0 56.45687494902406,26.33521707930797,0 56.52761309312634,26.38403173125998,0 56.60722796053975,27.15061820530527,0 
					</coordinates>
				</LinearRing>
			</outerBoundaryIs>
		</Polygon>
	</Placemark>
</Document>
</kml>
